[{"OBJECT_NAME":"OMNI-L2","OBJECT_ID":"2022-057AR","EPOCH":"2026-03-09T18:02:52.792224","MEAN_MOTION":14.8107523,"ECCENTRICITY":0.00052733,"INCLINATION":97.481,"RA_OF_ASC_NODE":137.7671,"ARG_OF_PERICENTER":294.5494,"MEAN_ANOMALY":65.517,"EPHEMERIS_TYPE":0,"CLASSIFICATION_TYPE":"U","NORAD_CAT_ID":52771,"ELEMENT_SET_NO":999,"REV_AT_EPOCH":20567,"BSTAR":0.00027609772,"MEAN_MOTION_DOT":2.095e-5,"MEAN_MOTION_DDOT":0},{"OBJECT_NAME":"SL-14 R\/B","OBJECT_ID":"1987-003B","EPOCH":"2026-03-09T23:05:47.136768","MEAN_MOTION":14.85629429,"ECCENTRICITY":0.00190097,"INCLINATION":82.5259,"RA_OF_ASC_NODE":280.8039,"ARG_OF_PERICENTER":139.1629,"MEAN_ANOMALY":221.1016,"EPHEMERIS_TYPE":0,"CLASSIFICATION_TYPE":"U","NORAD_CAT_ID":17296,"ELEMENT_SET_NO":999,"REV_AT_EPOCH":9474,"BSTAR":5.8437645e-5,"MEAN_MOTION_DOT":5.32e-6,"MEAN_MOTION_DDOT":0}]
